LEMUR-1                 
1 40044U 14033AL  26166.67705491  .00001783  00000+0  20964-3 0  9995
2 40044  97.7875 316.5155 0049728  83.4796 277.2078 14.85241787645241
LEMUR-2-GREENBERG       
1 42837U 17042N   26166.97614415  .00013742  00000+0  45634-3 0  9997
2 42837  97.3811 347.6061 0008653  18.3296 341.8256 15.31296263488202
LEMUR-2-ANDIS           
1 42838U 17042P   26166.74741638  .00017105  00000+0  50837-3 0  9999
2 42838  97.3668 347.5576 0008268  17.6439 342.5090 15.34793930488239
LEMUR-2-MONSON          
1 42839U 17042Q   26166.45838329  .00011191  00000+0  41234-3 0  9992
2 42839  97.4069 347.0659 0006370  12.4505 347.6890 15.27970619487902
LEMUR-2-FURIAUS         
1 42840U 17042R   26166.44594397  .00014384  00000+0  49395-3 0  9990
2 42840  97.3762 345.0379 0008237  74.3818 285.8331 15.30202181487941
LEMUR-2-PETERG          
1 42841U 17042S   26166.79590023  .00017262  00000+0  52918-3 0  9994
2 42841  97.3979 351.8236 0003374   2.5258 357.6001 15.33838425488220
LEMUR-2-DEMBITZ         
1 42842U 17042T   26166.46587510  .00012924  00000+0  44368-3 0  9996
2 42842  97.3817 348.0802 0006895  34.6437 325.5252 15.30247112488085
LEMUR-2-ZACHARY         
1 42845U 17042W   26166.76992574  .00039042  00000+0  69200-3 0  9994
2 42845  97.3588 358.3766 0002995  39.2233 320.9235 15.50157306488984
LEMUR-2-AMANDA-SVANTE   
1 48269U 21034B   26166.72698643  .00025072  00000+0  75765-3 0  9993
2 48269  97.5765 244.9738 0002100 211.8996 148.2120 15.34223444280837
LEMUR-2-SPECIAL-K       
1 48273U 21034F   26166.80602766  .00133421  00000+0  13892-2 0  9998
2 48273  97.5658 253.5633 0004159 230.2205 129.8687 15.64122244281470
LEMUR-2-EMBRIONOVIS     
1 56970U 23084AQ  26166.63977401  .00010854  00000+0  29693-3 0  9991
2 56970  97.6287 310.7792 0007832 326.4033  33.6714 15.37515767167441
LEMUR-2-DEVERILL-M-T    
1 57391U 23100F   26166.67514234  .00022390  00000+0  56843-3 0  9998
2 57391  99.4464 204.9964 0006457  55.0750 305.1095 15.39689588161015
LEMUR-2-BASS            
1 58259U 23174D   26166.71875679  .00015255  00000+0  34694-3 0  9993
2 58259  97.3851 251.4099 0007620 166.8309 193.3139 15.43052824145139
LEMUR-2-JK0903EM1407    
1 58336U 23174CJ  26166.78946328  .00023221  00000+0  39211-3 0  9998
2 58336  97.3928 257.2195 0005797 123.7444 236.4361 15.51618193145510
LEMUR-2-MJR092620       
1 58340U 23174CN  26166.73374849  .00016712  00000+0  35780-3 0  9995
2 58340  97.3984 256.7356 0007089 121.8807 238.3132 15.44831542145422
LEMUR-2-NIMBUS2000      
1 58899U 24022A   26166.84421508  .00013630  00000+0  34340-3 0  9991
2 58899  97.4103  16.8289 0010286 120.0105 240.2163 15.39959639132064
LEMUR-2-VALHALLA        
1 58900U 24022B   26166.84015264  .00012827  00000+0  32668-3 0  9990
2 58900  97.4101  16.8161 0010827 116.2586 243.9774 15.39637995132061
LEMUR-2-CAEL            
1 58903U 24022E   26166.85111518  .00014101  00000+0  34407-3 0  9993
2 58903  97.4084  17.7608 0009272 101.4556 258.7733 15.40937498132135
LEMUR-2-JOHNNYTRUONG    
1 59146U 24043BA  26166.93162234  .00031073  00000+0  37950-3 0  9999
2 59146  97.5376 318.5565 0004763 180.2390 179.8865 15.60383678127843
LEMUR-2-TOMATOKECHUP    
1 60471U 24149D   26166.80442274  .00009203  00000+0  26475-3 0  9990
2 60471  97.3807 248.8473 0001290 178.9166 181.2081 15.36010155101954
LEMUR-2-STELLA          
1 60533U 24149BT  26166.75801049  .00009795  00000+0  57736-3 0  9992
2 60533  97.6745 249.2064 0001713  96.3616 263.7809 15.11786931100285
LEMUR-2-MARHISYAM       
1 60536U 24149BW  26166.93644329  .00008323  00000+0  49871-3 0  9998
2 60536  97.6885 249.8334 0003343 119.8912 240.2650 15.11239804100297
LEMUR-2-AHMED-ASRAR     
1 60576U 24149DN  26166.97178718  .00009929  00000+0  57074-3 0  9997
2 60576  97.7012 251.9570 0001936  45.9099 314.2291 15.12691948100386
LEMUR-2-LLOYD           
1 60577U 24149DP  26166.71626483  .00009326  00000+0  59004-3 0  9993
2 60577  97.6749 247.8440 0004730 145.1842 214.9697 15.09214445100179
LEMUR-2-SQUIRRELCOMM    
1 60578U 24149DQ  26166.79479856  .00004594  00000+0  30975-3 0  9990
2 60578  97.6711 247.7102 0006500  65.7730 294.4177 15.07137460100190
LEMUR-2-SIERRINI        
1 60579U 24149DR  26166.76103411  .00009455  00000+0  57073-3 0  9998
2 60579  97.6850 249.3466 0005728 168.5038 191.6323 15.10924170100243
LEMUR-2-WILSON          
1 62694U 25009CP  26166.68960150  .00002301  00000+0  21475-3 0  9996
2 62694  97.7025 245.1801 0004255  61.5567 298.6082 14.95159177 77138
LEMUR-2-STAR-FOX        
1 62696U 25009CR  26166.96062400  .00006657  00000+0  50582-3 0  9999
2 62696  97.6959 248.5777 0003741 114.3197 245.8419 15.02490080 77373
LEMUR-2-ARIANNA         
1 62699U 25009CU  26166.75915175  .00006800  00000+0  51681-3 0  9996
2 62699  97.6899 248.1536 0004060 120.9106 239.2518 15.02469396 77346
