OBJECT_NAME,OBJECT_ID,EPOCH,MEAN_MOTION,ECCENTRICITY,INCLINATION,RA_OF_ASC_NODE,ARG_OF_PERICENTER,MEAN_ANOMALY,EPHEMERIS_TYPE,CLASSIFICATION_TYPE,NORAD_CAT_ID,ELEMENT_SET_NO,REV_AT_EPOCH,BSTAR,MEAN_MOTION_DOT,MEAN_MOTION_DDOT
LEMUR-1,2014-033AL,2026-06-15T16:14:57.544224,14.85241787,.00497285,97.7875,316.5155,83.4796,277.2078,0,U,40044,999,64524,.2096412E-3,.1783E-4,0
LEMUR-2-GREENBERG,2017-042N,2026-06-15T23:25:38.854560,15.31296263,.00086537,97.3811,347.6061,18.3296,341.8256,0,U,42837,999,48820,.45633976E-3,.13742E-3,0
LEMUR-2-ANDIS,2017-042P,2026-06-15T17:56:16.775232,15.34793930,.00082682,97.3668,347.5576,17.6439,342.5090,0,U,42838,999,48823,.50837373E-3,.17105E-3,0
LEMUR-2-MONSON,2017-042Q,2026-06-15T11:00:04.316256,15.27970619,.00063701,97.4069,347.0659,12.4505,347.6890,0,U,42839,999,48790,.41234121E-3,.11191E-3,0
LEMUR-2-FURIAUS,2017-042R,2026-06-15T10:42:09.559008,15.30202181,.00082377,97.3762,345.0379,74.3818,285.8331,0,U,42840,999,48794,.4939494E-3,.14384E-3,0
LEMUR-2-PETERG,2017-042S,2026-06-15T19:06:05.779872,15.33838425,.00033749,97.3979,351.8236,2.5258,357.6001,0,U,42841,999,48822,.52918259E-3,.17262E-3,0
LEMUR-2-DEMBITZ,2017-042T,2026-06-15T11:10:51.608640,15.30247112,.00068953,97.3817,348.0802,34.6437,325.5252,0,U,42842,999,48808,.44368428E-3,.12924E-3,0
LEMUR-2-ZACHARY,2017-042W,2026-06-15T18:28:41.583936,15.50157306,.00029956,97.3588,358.3766,39.2233,320.9235,0,U,42845,999,48898,.69199748E-3,.39042E-3,0
LEMUR-2-AMANDA-SVANTE,2021-034B,2026-06-15T17:26:51.627552,15.34223444,.00021,97.5765,244.9738,211.8996,148.2120,0,U,48269,999,28083,.75764539E-3,.25072E-3,0
LEMUR-2-SPECIAL-K,2021-034F,2026-06-15T19:20:40.789824,15.64122244,.00041595,97.5658,253.5633,230.2205,129.8687,0,U,48273,999,28147,.13892402E-2,.133421E-2,0
LEMUR-2-EMBRIONOVIS,2023-084AQ,2026-06-15T15:21:16.474464,15.37515767,.00078323,97.6287,310.7792,326.4033,33.6714,0,U,56970,999,16744,.29692858E-3,.10854E-3,0
LEMUR-2-DEVERILL-M-T,2023-100F,2026-06-15T16:12:12.298176,15.39689588,.00064574,99.4464,204.9964,55.0750,305.1095,0,U,57391,999,16101,.56843147E-3,.2239E-3,0
LEMUR-2-BASS,2023-174D,2026-06-15T17:15:00.586656,15.43052824,.00076202,97.3851,251.4099,166.8309,193.3139,0,U,58259,999,14513,.34693936E-3,.15255E-3,0
LEMUR-2-JK0903EM1407,2023-174CJ,2026-06-15T18:56:49.627392,15.51618193,.00057974,97.3928,257.2195,123.7444,236.4361,0,U,58336,999,14551,.39211264E-3,.23221E-3,0
LEMUR-2-MJR092620,2023-174CN,2026-06-15T17:36:35.869536,15.44831542,.00070892,97.3984,256.7356,121.8807,238.3132,0,U,58340,999,14542,.35780409E-3,.16712E-3,0
LEMUR-2-NIMBUS2000,2024-022A,2026-06-15T20:15:40.182912,15.39959639,.00102862,97.4103,16.8289,120.0105,240.2163,0,U,58899,999,13206,.34339825E-3,.1363E-3,0
LEMUR-2-VALHALLA,2024-022B,2026-06-15T20:09:49.188096,15.39637995,.00108277,97.4101,16.8161,116.2586,243.9774,0,U,58900,999,13206,.32668095E-3,.12827E-3,0
LEMUR-2-CAEL,2024-022E,2026-06-15T20:25:36.351552,15.40937498,.00092721,97.4084,17.7608,101.4556,258.7733,0,U,58903,999,13213,.34407481E-3,.14101E-3,0
LEMUR-2-JOHNNYTRUONG,2024-043BA,2026-06-15T22:21:32.170176,15.60383678,.00047636,97.5376,318.5565,180.2390,179.8865,0,U,59146,999,12784,.37949687E-3,.31073E-3,0
LEMUR-2-TOMATOKECHUP,2024-149D,2026-06-15T19:18:22.124736,15.36010155,.00012908,97.3807,248.8473,178.9166,181.2081,0,U,60471,999,10195,.26474501E-3,.9203E-4,0
LEMUR-2-STELLA,2024-149BT,2026-06-15T18:11:32.106336,15.11786931,.0001713,97.6745,249.2064,96.3616,263.7809,0,U,60533,999,10028,.57735895E-3,.9795E-4,0
LEMUR-2-MARHISYAM,2024-149BW,2026-06-15T22:28:28.700256,15.11239804,.00033432,97.6885,249.8334,119.8912,240.2650,0,U,60536,999,10029,.49871115E-3,.8323E-4,0
LEMUR-2-AHMED-ASRAR,2024-149DN,2026-06-15T23:19:22.412352,15.12691948,.00019366,97.7012,251.9570,45.9099,314.2291,0,U,60576,999,10038,.57073885E-3,.9929E-4,0
LEMUR-2-LLOYD,2024-149DP,2026-06-15T17:11:25.281312,15.09214445,.00047307,97.6749,247.8440,145.1842,214.9697,0,U,60577,999,10017,.59004441E-3,.9326E-4,0
LEMUR-2-SQUIRRELCOMM,2024-149DQ,2026-06-15T19:04:30.595584,15.07137460,.00065003,97.6711,247.7102,65.7730,294.4177,0,U,60578,999,10019,.30974554E-3,.4594E-4,0
LEMUR-2-SIERRINI,2024-149DR,2026-06-15T18:15:53.347104,15.10924170,.00057285,97.6850,249.3466,168.5038,191.6323,0,U,60579,999,10024,.57072843E-3,.9455E-4,0
LEMUR-2-WILSON,2025-009CP,2026-06-15T16:33:01.569600,14.95159177,.00042555,97.7025,245.1801,61.5567,298.6082,0,U,62694,999,7713,.21474646E-3,.2301E-4,0
LEMUR-2-STAR-FOX,2025-009CR,2026-06-15T23:03:17.913600,15.02490080,.00037412,97.6959,248.5777,114.3197,245.8419,0,U,62696,999,7737,.50581608E-3,.6657E-4,0
LEMUR-2-ARIANNA,2025-009CU,2026-06-15T18:13:10.711200,15.02469396,.00040608,97.6899,248.1536,120.9106,239.2518,0,U,62699,999,7734,.51680905E-3,.68E-4,0
